GLOBALSTAR M045         
1 25676U 99019A   24125.45196317 -.00000121  00000+0 -24470-3 0  9999
2 25676  51.9996  30.2243 0001020  99.6874  71.7306 12.27036128143450
GLOBALSTAR M044         
1 25678U 99019C   24125.22957502 -.00000062  00000+0  30574-3 0  9992
2 25678  51.9997  32.6503 0006279 336.4684 191.9236 11.90231837122604
GLOBALSTAR M042         
1 25679U 99019D   24126.18051840 -.00000081  00000+0  10494-3 0  9999
2 25679  51.9986 122.7434 0002881 176.8876 263.9397 12.22060990135441
GLOBALSTAR M025         
1 25770U 99031A   24126.24017994 -.00000066  00000+0  47354-4 0  9993
2 25770  51.9851  24.3029 0001244 161.3704  19.2875 11.22550563 93559
GLOBALSTAR M049         
1 25771U 99031B   24124.93611189  .00000011  00000+0  26305-2 0  9994
2 25771  51.9904  41.5189 0003266  47.3616 312.7455 11.12104563 71890
GLOBALSTAR M047         
1 25772U 99031C   24124.57719425 -.00000076  00000+0 -17240-3 0  9999
2 25772  51.9829  78.4334 0016357 280.6744  79.2220 11.31920326424720
GLOBALSTAR M052         
1 25773U 99031D   24124.48419626 -.00000019  00000+0  15846-2 0  9995
2 25773  51.9828 156.9835 0002913 215.5217 293.9763 11.15050774432801
